NORAD_CAT_ID,OBJECT_NAME,OBJECT_TYPE,EPOCH,MEAN_MOTION,ECCENTRICITY,INCLINATION,RA_OF_ASC_NODE,ARG_OF_PERICENTER,MEAN_ANOMALY,BSTAR,MEAN_MOTION_DOT,MEAN_MOTION_DDOT,TLE_LINE0,TLE_LINE1,TLE_LINE2,SEMIMAJOR_AXIS,PERIOD,APOGEE,PERIGEE,DECAYED
53418.0,STARLINK-4481,PAYLOAD,2022-11-10 22:00:00,15.08833339,0.0001227,53.2148,157.0138,69.3617,177.5705,0.0010658,0.00016712,0.0,0 STARLINK-4481,1 53418U 22097AG  22314.91667824  .00016712  00000-0  10658-2 0  9995,2 53418  53.2148 157.0138 0001227  69.3617 177.5705 15.08833339  1304,6917.901,95.438,540.615,538.9169999999998,0.0
53418.0,STARLINK-4481,PAYLOAD,2022-11-11 08:00:01,15.08840698,0.0001117,53.2146,155.1418,78.0611,273.3723,0.00063039,9.759e-05,0.0,0 STARLINK-4481,1 53418U 22097AG  22315.33334491  .00009759  00000-0  63039-3 0  9998,2 53418  53.2146 155.1418 0001117  78.0611 273.3723 15.08840698 14980,6917.878000000002,95.438,540.516,538.971,0.0
53418.0,STARLINK-4481,PAYLOAD,2022-11-11 14:00:01,15.08854745,0.000116,53.2146,154.0194,82.6514,187.4774,0.00046309,7.093e-05,0.0,0 STARLINK-4481,1 53418U 22097AG  22315.58334491  .00007093  00000-0  46309-3 0  9995,2 53418  53.2146 154.0194 0001160  82.6514 187.4774 15.08854745  1301,6917.835,95.437,540.503,538.898,0.0
53418.0,STARLINK-4481,PAYLOAD,2022-11-11 22:00:00,15.08849037,0.0001274,53.2145,152.5246,70.4324,211.3173,0.00066182,0.00010263,0.0,0 STARLINK-4481,1 53418U 22097AG  22315.91667824  .00010263  00000-0  66182-3 0  9995,2 53418  53.2145 152.5246 0001274  70.4324 211.3173 15.08849037  1309,6917.853,95.437,540.599,538.836,0.0
53418.0,STARLINK-4481,PAYLOAD,2022-11-12 14:00:01,15.08845396,0.0001315,53.2145,149.53,82.2772,222.6808,0.00024902,3.678e-05,0.0,0 STARLINK-4481,1 53418U 22097AG  22316.58334491  .00003678  00000-0  24902-3 0  9996,2 53418  53.2145 149.5300 0001315  82.2772 222.6808 15.08845396 15174,6917.864000000001,95.437,540.639,538.819,0.0
53418.0,STARLINK-4481,PAYLOAD,2022-11-13 00:00:00,15.08835131,0.0001394,53.2144,147.6613,69.2375,340.2241,0.0004372,6.676e-05,0.0,0 STARLINK-4481,1 53418U 22097AG  22317.00001157  .00006676  00000-0  43720-3 0  9994,2 53418  53.2144 147.6613 0001394  69.2375 340.2241 15.08835131  1304,6917.895,95.438,540.725,538.7959999999998,0.0
53418.0,STARLINK-4481,PAYLOAD,2022-11-13 06:00:02,15.08839841,0.0001401,53.2145,146.5375,75.7181,252.5041,-0.0025702,-0.0004096,0.0,0 STARLINK-4481,1 53418U 22097AG  22317.25002315 -.00040960  00000-0 -25702-2 0  9993,2 53418  53.2145 146.5375 0001401  75.7181 252.5041 15.08839841 15270,6917.880999999999,95.438,540.715,538.7769999999998,0.0
53418.0,STARLINK-4481,PAYLOAD,2022-11-13 14:00:01,15.08831319,0.0001478,53.2147,145.0408,80.8879,258.8438,-0.00016655,-2.937e-05,0.0,0 STARLINK-4481,1 53418U 22097AG  22317.58334491 -.00002937  00000-0 -16655-3 0  9992,2 53418  53.2147 145.0408 0001478  80.8879 258.8438 15.08831319  1308,6917.906999999997,95.438,540.794,538.749,0.0
53418.0,STARLINK-4481,PAYLOAD,2022-11-13 22:00:00,15.08807756,0.0001561,53.2149,143.5461,71.0611,280.2579,0.0022191,0.00035174,0.0,0 STARLINK-4481,1 53418U 22097AG  22317.91667824  .00035174  00000-0  22191-2 0  9996,2 53418  53.2149 143.5461 0001561  71.0611 280.2579 15.08807756  1304,6917.979,95.44,540.924,538.764,0.0
53418.0,STARLINK-4481,PAYLOAD,2022-11-14 14:00:01,15.08846445,0.000151,53.2155,140.55100000000002,79.0425,295.4282,-0.00057689,-9.459e-05,0.0,0 STARLINK-4481,1 53418U 22097AG  22318.58334491 -.00009459  00000-0 -57689-3 0  9991,2 53418  53.2155 140.5510 0001510  79.0425 295.4282 15.08846445 15478,6917.861,95.437,540.77,538.681,0.0
53418.0,STARLINK-4481,PAYLOAD,2022-11-14 22:00:00,15.08798309,0.0001538,53.2163,139.055,72.4618,313.6173,0.0063183,0.00101605,0.0,0 STARLINK-4481,1 53418U 22097AG  22318.91667824  .00101605  00000-0  63183-2 0  9996,2 53418  53.2163 139.0550 0001538  72.4618 313.6173 15.08798309  1309,6918.0080000000025,95.44,540.937,538.809,0.0
53418.0,STARLINK-4481,PAYLOAD,2022-11-15 14:00:01,15.08863827,0.0001551,53.2159,136.0628,77.1181,332.1409,-0.00089015,-0.00014436,0.0,0 STARLINK-4481,1 53418U 22097AG  22319.58334491 -.00014436  00000-0 -89015-3 0  9991,2 53418  53.2159 136.0628 0001551  77.1181 332.1409 15.08863827  1305,6917.808000000001,95.436,540.746,538.6,0.0
53418.0,STARLINK-4481,PAYLOAD,2022-11-15 18:00:02,15.08856432,0.0001595,53.2158,135.3155,71.4807,163.6527,-0.00070471,-0.00011491,0.0,0 STARLINK-4481,1 53418U 22097AG  22319.75002315 -.00011491  00000-0 -70471-3 0  9991,2 53418  53.2158 135.3155 0001595  71.4807 163.6527 15.08856432 15645,6917.83,95.437,540.799,538.592,0.0
53418.0,STARLINK-4481,PAYLOAD,2022-11-15 22:00:00,15.08837087,0.0001587,53.2159,134.5674,67.9996,352.8816,0.0021647,0.00034329,0.0,0 STARLINK-4481,1 53418U 22097AG  22319.91667824  .00034329  00000-0  21647-2 0  9994,2 53418  53.2159 134.5674 0001587  67.9996 352.8816 15.08837087  1309,6917.889,95.438,540.852,538.656,0.0
53418.0,STARLINK-4481,PAYLOAD,2022-11-16 14:00:01,15.08798489,0.0001557,53.2171,131.5689,72.2963,11.8555,0.003371,0.00053709,0.0,0 STARLINK-4481,1 53418U 22097AG  22320.58335648  .00053709  00000-0  33710-2 0  9992,2 53418  53.2171 131.5689 0001557  72.2963  11.8555 15.08798489  1300,6918.007,95.44,540.9490000000002,538.795,0.0
53418.0,STARLINK-4481,PAYLOAD,2022-11-16 20:00:01,15.08837874,0.0001706999999999,53.2175,130.4472,65.5341,297.2252,-0.00011761,-2.159e-05,0.0,0 STARLINK-4481,1 53418U 22097AG  22320.83334491 -.00002159  00000-0 -11761-3 0  9993,2 53418  53.2175 130.4472 0001707  65.5341 297.2252 15.08837874 15811,6917.887,95.438,540.933,538.571,0.0
53418.0,STARLINK-4481,PAYLOAD,2022-11-16 22:00:08,15.08834117,0.0001679,53.2174,130.0728,65.4282,30.6709,0.00030719,4.604e-05,0.0,0 STARLINK-4481,1 53418U 22097AG  22320.91675926  .00004604  00000-0  30719-3 0  9992,2 53418  53.2174 130.0728 0001679  65.4282  30.6709 15.08834117  1303,6917.898,95.438,540.925,538.602,0.0
53418.0,STARLINK-4481,PAYLOAD,2022-11-17 14:00:01,15.08859323,0.0001403,53.2162,127.0847,76.2138,42.6104,-0.0016188,-0.00025972,0.0,0 STARLINK-4481,1 53418U 22097AG  22321.58334491 -.00025972  00000-0 -16188-2 0  9991,2 53418  53.2162 127.0847 0001403  76.2138  42.6104 15.08859323  1301,6917.821,95.436,540.6569999999998,538.716,0.0
53418.0,STARLINK-4481,PAYLOAD,2022-11-17 22:00:00,15.08824174,0.0001436,53.2158,125.5896,66.9614,63.4769,0.0029886,0.00047576,0.0,0 STARLINK-4481,1 53418U 22097AG  22321.91667824  .00047576  00000-0  29886-2 0  9998,2 53418  53.2158 125.5896 0001436  66.9614  63.4769 15.08824174  1308,6917.929,95.439,540.7869999999998,538.8,0.0
53418.0,STARLINK-4481,PAYLOAD,2022-11-18 14:00:01,15.08866659,0.0001447,53.2165,122.5929,80.225,73.4154,-0.0053521,-0.00084529,0.0,0 STARLINK-4481,1 53418U 22097AG  22322.58334491 -.00084529  00000-0 -53521-2 0  9997,2 53418  53.2165 122.5929 0001447  80.2250  73.4154 15.08866659 16070,6917.799,95.436,540.665,538.663,0.0
53418.0,STARLINK-4481,PAYLOAD,2022-11-18 22:00:00,15.08775708,0.0001424,53.2152,121.1004,67.7672,97.4601,0.0027433,0.00043565,0.0,0 STARLINK-4481,1 53418U 22097AG  22322.91667824  .00043565  00000-0  27433-2 0  9999,2 53418  53.2152 121.1004 0001424  67.7672  97.4601 15.08775708  1305,6918.0769999999975,95.442,540.927,538.957,0.0
53418.0,STARLINK-4481,PAYLOAD,2022-11-19 08:00:01,15.08776442,0.0001416999999999,53.2149,119.2279,79.2303,190.4293,0.0056728,0.00091004,0.0,0 STARLINK-4481,1 53418U 22097AG  22323.33334491  .00091004  00000-0  56728-2 0  9997,2 53418  53.2149 119.2279 0001417  79.2303 190.4293 15.08776442 16183,6918.075,95.442,540.92,538.9590000000002,0.0
53418.0,STARLINK-4481,PAYLOAD,2022-11-19 14:00:01,15.08848251,0.0001513,53.2151,118.1067,77.2876,111.0276,-0.0016081,-0.00025795,0.0,0 STARLINK-4481,1 53418U 22097AG  22323.58334491 -.00025795  00000-0 -16081-2 0  9998,2 53418  53.2151 118.1067 0001513  77.2876 111.0276 15.08848251  1305,6917.855,95.437,540.7669999999998,538.673,0.0
53418.0,STARLINK-4481,PAYLOAD,2022-11-19 22:00:00,15.088205800000004,0.0001535,53.2147,116.6112,69.0441,130.8689,0.002473,0.00039269,0.0,0 STARLINK-4481,1 53418U 22097AG  22323.91667824  .00039269  00000-0  24730-2 0  9993,2 53418  53.2147 116.6112 0001535  69.0441 130.8689 15.08820580  1307,6917.94,95.439,540.867,538.743,0.0
53418.0,STARLINK-4481,PAYLOAD,2022-11-20 14:00:01,15.08860023,0.0001538,53.2148,113.6174,75.5596,147.5381,-0.0015139,-0.00024314,0.0,0 STARLINK-4481,1 53418U 22097AG  22324.58334491 -.00024314  00000-0 -15139-2 0  9998,2 53418  53.2148 113.6174 0001538  75.5596 147.5381 15.08860023 16372,6917.819,95.436,540.748,538.62,0.0
53418.0,STARLINK-4481,PAYLOAD,2022-11-20 22:00:00,15.08841016,0.0001536,53.2146,112.1216,67.7059,167.0014,0.0014313,0.00022565,0.0,0 STARLINK-4481,1 53418U 22097AG  22324.91667824  .00022565  00000-0  14313-2 0  9991,2 53418  53.2146 112.1216 0001536  67.7059 167.0014 15.08841016  1304,6917.877,95.437,540.805,538.68,0.0
53418.0,STARLINK-4481,PAYLOAD,2022-11-21 08:00:01,15.08820008,0.0001415,53.2147,110.2489,76.4009,262.8306,0.0022668,0.00035953,0.0,0 STARLINK-4481,1 53418U 22097AG  22325.33334491  .00035953  00000-0  22668-2 0  9996,2 53418  53.2147 110.2489 0001415  76.4009 262.8306 15.08820008 16496,6917.941,95.439,540.785,538.828,0.0
53418.0,STARLINK-4481,PAYLOAD,2022-11-21 14:00:01,15.08850205,0.0001462,53.215,109.1278,71.6403,186.2772,-0.0012573,-0.00020248,0.0,0 STARLINK-4481,1 53418U 22097AG  22325.58334491 -.00020248  00000-0 -12573-2 0  9990,2 53418  53.2150 109.1278 0001462  71.6403 186.2772 15.08850205  1302,6917.849,95.437,540.726,538.703,0.0
53418.0,STARLINK-4481,PAYLOAD,2022-11-21 22:00:00,15.0883843,0.0001481,53.215,107.632,64.1334,205.3835,0.0015307,0.00024156,0.0,0 STARLINK-4481,1 53418U 22097AG  22325.91667824  .00024156  00000-0  15307-2 0  9994,2 53418  53.2150 107.6320 0001481  64.1334 205.3835 15.08838430 16578,6917.885,95.438,540.775,538.726,0.0
